[{"OBJECT_NAME":"ICEYE-X7","OBJECT_ID":"2020-068L","EPOCH":"2026-03-09T22:52:28.702272","MEAN_MOTION":15.29152508,"ECCENTRICITY":0.00068409,"INCLINATION":97.7412,"RA_OF_ASC_NODE":31.2076,"ARG_OF_PERICENTER":332.3045,"MEAN_ANOMALY":27.7829,"EPHEMERIS_TYPE":0,"CLASSIFICATION_TYPE":"U","NORAD_CAT_ID":46496,"ELEMENT_SET_NO":999,"REV_AT_EPOCH":29961,"BSTAR":0.0005654802,"MEAN_MOTION_DOT":0.00015947,"MEAN_MOTION_DDOT":0},{"OBJECT_NAME":"STARLINK-31919","OBJECT_ID":"2024-098Y","EPOCH":"2026-03-09T22:30:22.344768","MEAN_MOTION":15.27587887,"ECCENTRICITY":0.00010278,"INCLINATION":43.0025,"RA_OF_ASC_NODE":276.6299,"ARG_OF_PERICENTER":276.9645,"MEAN_ANOMALY":83.109,"EPHEMERIS_TYPE":0,"CLASSIFICATION_TYPE":"U","NORAD_CAT_ID":59880,"ELEMENT_SET_NO":999,"REV_AT_EPOCH":10188,"BSTAR":0.00014297853,"MEAN_MOTION_DOT":3.675e-5,"MEAN_MOTION_DDOT":0}]
